NORAD_CAT_ID,OBJECT_NAME,OBJECT_TYPE,EPOCH,MEAN_MOTION,ECCENTRICITY,INCLINATION,RA_OF_ASC_NODE,ARG_OF_PERICENTER,MEAN_ANOMALY,BSTAR,MEAN_MOTION_DOT,MEAN_MOTION_DDOT,TLE_LINE0,TLE_LINE1,TLE_LINE2,SEMIMAJOR_AXIS,PERIOD,APOGEE,PERIGEE,DECAYED
49455.0,STARLINK-3145,PAYLOAD,2023-01-14 14:25:43,15.08852551,0.0001489,53.2138,342.0817,98.4093,261.7068,0.00045454,6.956e-05,0.0,0 STARLINK-3145,1 49455U 21104AZ  23014.60119658  .00006956  00000-0  45454-3 0  9992,2 49455  53.2138 342.0817 0001489  98.4093 261.7068 15.08852551 66227,6917.842,95.437,540.737,538.677,0.0
49455.0,STARLINK-3145,PAYLOAD,2023-01-15 04:44:11,15.08837987,0.0001152,53.2129,339.4074,102.5405,257.5716,-1.099e-05,-4.63e-06,0.0,0 STARLINK-3145,1 49455U 21104AZ  23015.19736015 -.00000463  00000-0 -10990-4 0  9996,2 49455  53.2129 339.4074 0001152 102.5405 257.5716 15.08837987 66312,6917.887,95.438,540.548,538.955,0.0
49455.0,STARLINK-3145,PAYLOAD,2023-01-15 07:54:57,15.08853783,0.0001591,53.214,338.8077,83.2454,276.8719,0.0004133999999999,6.3e-05,0.0,0 STARLINK-3145,1 49455U 21104AZ  23015.32983632  .00006300  00000-0  41340-3 0  9996,2 49455  53.2140 338.8077 0001591  83.2454 276.8719 15.08853783 66338,6917.838000000001,95.437,540.804,538.6030000000001,0.0
49455.0,STARLINK-3145,PAYLOAD,2023-01-15 14:16:30,15.08841964,0.000148,53.2132,337.6171,77.4248,282.691,0.00020453,2.969e-05,0.0,0 STARLINK-3145,1 49455U 21104AZ  23015.59479904  .00002969  00000-0  20453-3 0  9996,2 49455  53.2132 337.6171 0001480  77.4248 282.6910 15.08841964 65306,6917.874,95.437,540.763,538.716,0.0
49455.0,STARLINK-3145,PAYLOAD,2023-01-15 20:38:03,15.08843365,0.0001281,53.2149,336.4303,100.8811,259.2325,0.00016521,2.343e-05,0.0,0 STARLINK-3145,1 49455U 21104AZ  23015.85975834  .00002343  00000-0  16521-3 0  9995,2 49455  53.2149 336.4303 0001281 100.8811 259.2325 15.08843365 65345,6917.87,95.437,540.621,538.849,0.0
49455.0,STARLINK-3145,PAYLOAD,2023-01-16 04:34:56,15.08897003,0.0001376999999999,53.214,334.94300000000004,107.4478,252.6665,0.001205,0.00018972,0.0,0 STARLINK-3145,1 49455U 21104AZ  23016.19093391  .00018972  00000-0  12050-2 0  9999,2 49455  53.2140 334.9430 0001377 107.4478 252.6665 15.08897003 66464,6917.706,95.434,540.524,538.619,0.0
49455.0,STARLINK-3145,PAYLOAD,2023-01-16 20:28:49,15.08818392,0.0001855,53.212,331.9724,76.7574,283.3625,-0.00047415,-7.822e-05,0.0,0 STARLINK-3145,1 49455U 21104AZ  23016.85335596 -.00007822  00000-0 -47415-3 0  9996,2 49455  53.2120 331.9724 0001855  76.7574 283.3625 15.08818392 66563,6917.946,95.439,541.095,538.528,0.0
49455.0,STARLINK-3145,PAYLOAD,2023-01-17 13:58:04,15.08811318,0.0001946,53.2137,328.7002,77.6758,282.4452,0.00055717,8.584e-05,0.0,0 STARLINK-3145,1 49455U 21104AZ  23017.58200226  .00008584  00000-0  55717-3 0  9996,2 49455  53.2137 328.7002 0001946  77.6758 282.4452 15.08811318 66670,6917.968000000001,95.439,541.179,538.487,0.0
49455.0,STARLINK-3145,PAYLOAD,2023-01-17 20:19:38,15.08816902,0.0001986999999999,53.2136,327.5113,76.2797,283.8416,0.0011551999999999,0.00018133,0.0,0 STARLINK-3145,1 49455U 21104AZ  23017.84696946  .00018133  00000-0  11552-2 0  9992,2 49455  53.2136 327.5113 0001987  76.2797 283.8416 15.08816902 65647,6917.951,95.439,541.191,538.441,0.0
49455.0,STARLINK-3145,PAYLOAD,2023-01-18 13:48:52,15.08845899,0.0001848,53.2134,324.2376,79.1226,280.9974,0.0012181,0.00019154,0.0,0 STARLINK-3145,1 49455U 21104AZ  23018.57561251  .00019154  00000-0  12181-2 0  9996,2 49455  53.2134 324.2376 0001848  79.1226 280.9974 15.08845899 65751,6917.861999999999,95.437,541.006,538.4490000000001,0.0
49455.0,STARLINK-3145,PAYLOAD,2023-01-19 05:42:42,15.08918108,0.0001531999999999,53.2143,321.2646,81.1637,278.9528,0.0028896,0.000461,0.0,0 STARLINK-3145,1 49455U 21104AZ  23019.23799230  .00046100  00000-0  28896-2 0  9991,2 49455  53.2143 321.2646 0001532  81.1637 278.9528 15.08918108 66923,6917.642,95.433,540.566,538.447,0.0
49455.0,STARLINK-3145,PAYLOAD,2023-01-20 03:58:07,15.0883742,9.27e-05,53.2149,317.1011,99.5327,260.577,0.0016269,0.00025697,0.0,0 STARLINK-3145,1 49455U 21104AZ  23020.16536284  .00025697  00000-0  16269-2 0  9992,2 49455  53.2149 317.1011 0000927  99.5327 260.5770 15.08837420 67064,6917.888000000001,95.438,540.395,539.112,0.0
49455.0,STARLINK-3145,PAYLOAD,2023-01-21 03:48:55,15.08854394,0.0001521999999999,53.215,312.6421,90.7523,269.3644,0.0019352999999999,0.00030659,0.0,0 STARLINK-3145,1 49455U 21104AZ  23021.15897321  .00030659  00000-0  19353-2 0  9995,2 49455  53.2150 312.6421 0001522  90.7523 269.3644 15.08854394 67217,6917.835999999999,95.437,540.754,538.648,0.0
49455.0,STARLINK-3145,PAYLOAD,2023-01-22 02:04:18,15.08871951,0.0001152,53.2151,308.4794,120.9204,239.1901,0.0019349,0.00030667,0.0,0 STARLINK-3145,1 49455U 21104AZ  23022.08632710  .00030667  00000-0  19349-2 0  9991,2 49455  53.2151 308.4794 0001152 120.9204 239.1901 15.08871951 67359,6917.783,95.436,540.445,538.851,0.0
49455.0,STARLINK-3145,PAYLOAD,2023-01-22 11:36:37,15.08856338,0.0001715,53.2149,306.695,60.8805,299.2359,0.0016366,0.00025866,0.0,0 STARLINK-3145,1 49455U 21104AZ  23022.48376886  .00025866  00000-0  16366-2 0  9995,2 49455  53.2149 306.6950 0001715  60.8805 299.2359 15.08856338 67417,6917.83,95.437,540.882,538.509,0.0
49455.0,STARLINK-3145,PAYLOAD,2023-01-23 03:30:29,15.08838172,0.0001271,53.2136,303.7205,60.5073,299.6045,0.0021529,0.0003413999999999,0.0,0 STARLINK-3145,1 49455U 21104AZ  23023.14617569  .00034140  00000-0  21529-2 0  9997,2 49455  53.2136 303.7205 0001271  60.5073 299.6045 15.08838172 67518,6917.886,95.438,540.63,538.872,0.0
49455.0,STARLINK-3145,PAYLOAD,2023-01-23 11:27:25,15.08841799,0.0001281,53.2137,302.2325,69.7701,290.3428,0.0013710999999999,0.00021601,0.0,0 STARLINK-3145,1 49455U 21104AZ  23023.47737752  .00021601  00000-0  13711-2 0  9992,2 49455  53.2137 302.2325 0001281  69.7701 290.3428 15.08841799 67563,6917.875,95.437,540.626,538.854,0.0
49455.0,STARLINK-3145,PAYLOAD,2023-01-24 03:21:16,15.08858377,0.0001478,53.2137,299.2567,68.1215,291.9935,0.0013337,0.00021012,0.0,0 STARLINK-3145,1 49455U 21104AZ  23024.13977521  .00021012  00000-0  13337-2 0  9996,2 49455  53.2137 299.2567 0001478  68.1215 291.9935 15.08858377 67668,6917.8240000000005,95.436,540.712,538.6669999999999,0.0
49455.0,STARLINK-3145,PAYLOAD,2023-01-25 03:12:03,15.08849981,0.0001509,53.2123,294.798,78.1275,281.9886,0.0009343999999999,0.00014618,0.0,0 STARLINK-3145,1 49455U 21104AZ  23025.13337680  .00014618  00000-0  93440-3 0  9991,2 49455  53.2123 294.7980 0001509  78.1275 281.9886 15.08849981 67816,6917.85,95.437,540.759,538.6709999999999,0.0
49455.0,STARLINK-3145,PAYLOAD,2023-01-25 11:08:59,15.08839626,0.0001324,53.2121,293.3111,83.6664,276.4479,0.00036992,5.604e-05,0.0,0 STARLINK-3145,1 49455U 21104AZ  23025.46457656  .00005604  00000-0  36992-3 0  9997,2 49455  53.2121 293.3111 0001324  83.6664 276.4479 15.08839626 67860,6917.882,95.438,540.6619999999999,538.831,0.0
49455.0,STARLINK-3145,PAYLOAD,2023-01-26 03:02:50,15.08848526,0.0001699999999999,53.2132,290.3335,101.8018,258.3165,0.0012372,0.00019462,0.0,0 STARLINK-3145,1 49455U 21104AZ  23026.12697811  .00019462  00000-0  12372-2 0  9992,2 49455  53.2132 290.3335 0001700 101.8018 258.3165 15.08848526 66893,6917.854,95.437,540.895,538.543,0.0
49455.0,STARLINK-3145,PAYLOAD,2023-01-26 23:42:51,15.0884894,0.0001672,53.2131,286.4704,86.0073,274.111,0.00071995,0.00011191,0.0,0 STARLINK-3145,1 49455U 21104AZ  23026.98809941  .00011191  00000-0  71995-3 0  9993,2 49455  53.2131 286.4704 0001672  86.0073 274.1110 15.08848940 68091,6917.853,95.437,540.875,538.561,0.0
49455.0,STARLINK-3145,PAYLOAD,2023-01-27 02:53:37,15.08854713,0.0001764999999999,53.2131,285.8742,88.3999,271.7195,0.00098939,0.000155,0.0,0 STARLINK-3145,1 49455U 21104AZ  23027.12057833  .00015500  00000-0  98939-3 0  9990,2 49455  53.2131 285.8742 0001765  88.3999 271.7195 15.08854713 67046,6917.835,95.437,540.9209999999999,538.479,0.0
49455.0,STARLINK-3145,PAYLOAD,2023-01-27 20:22:52,15.08836977,0.0002011,53.2111,282.6014,98.0233,262.0988,0.00089574,0.00013995,0.0,0 STARLINK-3145,1 49455U 21104AZ  23027.84922180  .00013995  00000-0  89574-3 0  9996,2 49455  53.2111 282.6014 0002011  98.0233 262.0988 15.08836977 67152,6917.89,95.438,541.146,538.363,0.0
49455.0,STARLINK-3145,PAYLOAD,2023-01-28 02:44:25,15.0884609,0.0001530999999999,53.2125,281.4135,85.1605,274.9562,0.0009339999999999,0.0001460999999999,0.0,0 STARLINK-3145,1 49455U 21104AZ  23028.11418126  .00014610  00000-0  93400-3 0  9995,2 49455  53.2125 281.4135 0001531  85.1605 274.9562 15.08846090 68264,6917.861999999999,95.437,540.786,538.668,0.0
49455.0,STARLINK-3145,PAYLOAD,2023-01-28 21:49:02,15.08843964,0.0001529,53.2129,277.8438,76.7153,283.401,0.00077656,0.00012094,0.0,0 STARLINK-3145,1 49455U 21104AZ  23028.90906188  .00012094  00000-0  77656-3 0  9991,2 49455  53.2129 277.8438 0001529  76.7153 283.4010 15.08843964 68387,6917.868,95.437,540.791,538.676,0.0
49455.0,STARLINK-3145,PAYLOAD,2023-01-29 20:04:26,15.08835524,0.0001488,53.2133,273.6803,77.6162,282.4996,0.00018467,2.652e-05,0.0,0 STARLINK-3145,1 49455U 21104AZ  23029.83642280  .00002652  00000-0  18467-3 0  9998,2 49455  53.2133 273.6803 0001488  77.6162 282.4996 15.08835524 68527,6917.894,95.438,540.788,538.73,0.0
49455.0,STARLINK-3145,PAYLOAD,2023-01-30 00:50:36,15.08838864,0.0001429,53.2119,272.7886,84.8898,275.2258,4.402e-05,4.13e-06,0.0,0 STARLINK-3145,1 49455U 21104AZ  23030.03514149  .00000413  00000-0  44020-4 0  9992,2 49455  53.2119 272.7886 0001429  84.8898 275.2258 15.08838864 67488,6917.884,95.438,540.737,538.76,0.0
49455.0,STARLINK-3145,PAYLOAD,2023-01-30 21:30:37,15.0883633,0.0001376,53.2125,268.9228,85.6742,274.4408,-2.8127e-05,-7.35e-06,0.0,0 STARLINK-3145,1 49455U 21104AZ  23030.89626555 -.00000735  00000-0 -28127-4 0  9990,2 49455  53.2125 268.9228 0001376  85.6742 274.4408 15.08836330 67619,6917.892,95.438,540.709,538.805,0.0
